[{"OBJECT_NAME":"STARLINK-3534","OBJECT_ID":"2022-029AJ","EPOCH":"2026-03-09T06:22:39.234432","MEAN_MOTION":15.08841795,"ECCENTRICITY":0.00014115,"INCLINATION":53.2177,"RA_OF_ASC_NODE":81.0237,"ARG_OF_PERICENTER":94.5069,"MEAN_ANOMALY":265.6085,"EPHEMERIS_TYPE":0,"CLASSIFICATION_TYPE":"U","NORAD_CAT_ID":52120,"ELEMENT_SET_NO":999,"REV_AT_EPOCH":22073,"BSTAR":-6.091861e-6,"MEAN_MOTION_DOT":-3.85e-6,"MEAN_MOTION_DDOT":0},{"OBJECT_NAME":"SL-24 R\/B","OBJECT_ID":"2015-014C","EPOCH":"2026-03-09T13:33:24.155424","MEAN_MOTION":13.7773905,"ECCENTRICITY":0.0610763,"INCLINATION":97.3421,"RA_OF_ASC_NODE":264.7198,"ARG_OF_PERICENTER":166.3876,"MEAN_ANOMALY":195.462,"EPHEMERIS_TYPE":0,"CLASSIFICATION_TYPE":"U","NORAD_CAT_ID":40541,"ELEMENT_SET_NO":999,"REV_AT_EPOCH":55007,"BSTAR":0.00021162,"MEAN_MOTION_DOT":8.42e-6,"MEAN_MOTION_DDOT":0}]
